<?xml version="1.0" encoding="UTF-8" standalone="yes"?>
<ndm>
    <oem id="CCSDS_OEM_VERS" version="2.0">
        <header>
            <CREATION_DATE>2021-227T05:36:10.480Z</CREATION_DATE>
            <ORIGINATOR>JSC</ORIGINATOR>
        </header>
        <body>
            <segment>
                <metadata>
                    <OBJECT_NAME>ISS</OBJECT_NAME>
                    <OBJECT_ID>1998-067-A</OBJECT_ID>
                    <CENTER_NAME>EARTH</CENTER_NAME>
                    <REF_FRAME>EME2000</REF_FRAME>
                    <TIME_SYSTEM>UTC</TIME_SYSTEM>
                    <START_TIME>2021-225T12:40:19.983Z</START_TIME>
                    <STOP_TIME>2021-240T12:40:19.983Z</STOP_TIME>
                </metadata>
                <data>
                    <COMMENT>Units are in kg and m^2</COMMENT>
                    <COMMENT>MASS=448997.00</COMMENT>
                    <COMMENT>DRAG_AREA=1448.04</COMMENT>
                    <COMMENT>DRAG_COEFF=0.75</COMMENT>
                    <COMMENT>SOLAR_RAD_AREA=0.00</COMMENT>
                    <COMMENT>SOLAR_RAD_COEFF=0.00</COMMENT>
                    <COMMENT>ISS first asc. node: EPOCH = 2021-08-13T13:47:16.755 $ ORBIT = 1748 $ LAN(DEG) = -110.10640</COMMENT>
                    <COMMENT>ISS last asc. node : EPOCH = 2021-08-28T11:32:09.155 $ ORBIT = 1979 $ LAN(DEG) = -164.71124</COMMENT>
                    <COMMENT>Begin sequence of events</COMMENT>
                    <COMMENT>TRAJECTORY EVENT SUMMARY:</COMMENT>
                    <COMMENT></COMMENT>
                    <COMMENT>|       EVENT        |       TIG        | ORB |   DV    |   HA    |   HP    |</COMMENT>
                    <COMMENT>|                    |       GMT        |     |   M/S   |   KM    |   KM    |</COMMENT>
                    <COMMENT>|                    |                  |     |  (F/S)  |  (NM)   |  (NM)   |</COMMENT>
                    <COMMENT>=============================================================================</COMMENT>
                    <COMMENT> GMT231 SM Reboost     231:04:04:00.000             0.7     425.0     414.3</COMMENT>
                    <COMMENT>                                                   (2.3)   (229.5)   (223.7)</COMMENT>
                    <COMMENT></COMMENT>
                    <COMMENT> SPX23 Launch          240:07:37:12.000             0.0     425.7     415.5</COMMENT>
                    <COMMENT>                                                   (0.0)   (229.9)   (224.3)</COMMENT>
                    <COMMENT></COMMENT>
                    <COMMENT>=============================================================================</COMMENT>
                    <COMMENT>End sequence of events</COMMENT>
                    <stateVector>
                        <EPOCH>2021-228T01:20:19.983Z</EPOCH>
                        <X units="km">-5315.4161690748797</X>
                        <Y units="km">-4005.26200776208</Y>
                        <Z units="km">1384.73071701607</Z>
                        <X_DOT units="km/s">1.9447416086524301</X_DOT>
                        <Y_DOT units="km/s">-4.6007859631976</Y_DOT>
                        <Z_DOT units="km/s">-5.8081384052141303</Z_DOT>
                    </stateVector>
                    <stateVector>
                        <EPOCH>2021-228T01:24:19.983Z</EPOCH>
                        <X units="km">-4661.1004382281199</X>
                        <Y units="km">-4950.4197430337999</Y>
                        <Z units="km">-42.729410628893802</Z>
                        <X_DOT units="km/s">3.47451487658053</X_DOT>
                        <Y_DOT units="km/s">-3.2275452051259301</Y_DOT>
                        <Z_DOT units="km/s">-6.0145377502875803</Z_DOT>
                    </stateVector>
                    <stateVector>
                        <EPOCH>2021-228T01:28:19.983Z</EPOCH>
                        <X units="km">-3667.9714800428801</X>
                        <Y units="km">-5535.7452800168903</Y>
                        <Z units="km">-1467.0884238402</Z>
                        <X_DOT units="km/s">4.7508971848437698</X_DOT>
                        <Y_DOT units="km/s">-1.62064586961154</Y_DOT>
                        <Z_DOT units="km/s">-5.7825452123616996</Z_DOT>
                    </stateVector>
                    <stateVector>
                        <EPOCH>2021-228T01:32:19.983Z</EPOCH>
                        <X units="km">-2408.4339514922599</X>
                        <Y units="km">-5719.0324790293298</Y>
                        <Z units="km">-2784.6132253780602</Z>
                        <X_DOT units="km/s">5.6811038556600799</X_DOT>
                        <Y_DOT units="km/s">0.10220425240139</Y_DOT>
                        <Z_DOT units="km/s">-5.1298702192488097</Z_DOT>
                    </stateVector>
                    <stateVector>
                        <EPOCH>2021-228T01:36:19.983Z</EPOCH>
                        <X units="km">-974.16573473069604</X>
                        <Y units="km">-5487.4636987630602</Y>
                        <Z units="km">-3899.5873844985799</Z>
                        <X_DOT units="km/s">6.1982842642772003</X_DOT>
                        <Y_DOT units="km/s">1.81540581496762</Y_DOT>
                        <Z_DOT units="km/s">-4.1051102671206996</Z_DOT>
                    </stateVector>
                    <stateVector>
                        <EPOCH>2021-228T01:40:19.983Z</EPOCH>
                        <X units="km">530.70300200188694</X>
                        <Y units="km">-4858.3540745882501</Y>
                        <Z units="km">-4731.2700796405898</Z>
                        <X_DOT units="km/s">6.2660612459983298</X_DOT>
                        <Y_DOT units="km/s">3.3950073893761701</Y_DOT>
                        <Z_DOT units="km/s">-2.7835931232570399</Z_DOT>
                    </stateVector>
                    <stateVector>
                        <EPOCH>2021-228T01:44:19.983Z</EPOCH>
                        <X units="km">1997.19059802114</X>
                        <Y units="km">-3877.6752442258698</Y>
                        <Z units="km">-5219.6227830238404</Z>
                        <X_DOT units="km/s">5.8805124072032902</X_DOT>
                        <Y_DOT units="km/s">4.7275337376927604</Y_DOT>
                        <Z_DOT units="km/s">-1.2614246009308401</Z_DOT>
                    </stateVector>
                    <stateVector>
                        <EPOCH>2021-228T01:48:19.983Z</EPOCH>
                        <X units="km">3319.2677166930998</X>
                        <Y units="km">-2616.59214393203</Y>
                        <Z units="km">-5329.4735309149701</Z>
                        <X_DOT units="km/s">5.0699473684619996</X_DOT>
                        <Y_DOT units="km/s">5.7176979315532801</Y_DOT>
                        <Z_DOT units="km/s">0.35154736782474999</Z_DOT>
                    </stateVector>
                    <stateVector>
                        <EPOCH>2021-228T01:52:19.983Z</EPOCH>
                        <X units="km">4401.3485788671896</X>
                        <Y units="km">-1166.32018364233</Y>
                        <Z units="km">-5052.8922981999904</Z>
                        <X_DOT units="km/s">3.8925405726416802</X_DOT>
                        <Y_DOT units="km/s">6.2945880131399301</Y_DOT>
                        <Z_DOT units="km/s">1.9394160065553101</Z_DOT>
                    </stateVector>
                    <stateVector>
                        <EPOCH>2021-228T01:56:19.983Z</EPOCH>
                        <X units="km">5165.0134950431402</X>
                        <Y units="km">368.31341429154702</Y>
                        <Z units="km">-4409.7356464688801</Z>
                        <X_DOT units="km/s">2.43240076119279</X_DOT>
                        <Y_DOT units="km/s">6.4163511462088501</Y_DOT>
                        <Z_DOT units="km/s">3.3878328851866502</Z_DOT>
                    </stateVector>
                    <stateVector>
                        <EPOCH>2021-228T02:00:19.983Z</EPOCH>
                        <X units="km">5554.6134097968798</X>
                        <Y units="km">1876.2510799617301</Y>
                        <Z units="km">-3446.3273525543</Z>
                        <X_DOT units="km/s">0.79412505517807996</X_DOT>
                        <Y_DOT units="km/s">6.0732668451179199</Y_DOT>
                        <Z_DOT units="km/s">4.5918762045420696</Z_DOT>
                    </stateVector>
                    <stateVector>
                        <EPOCH>2021-228T02:04:19.983Z</EPOCH>
                        <X units="km">5541.3813383777797</X>
                        <Y units="km">3248.0925732777</Y>
                        <Z units="km">-2232.29889556649</Z>
                        <X_DOT units="km/s">-0.90411536652664004</X_DOT>
                        <Y_DOT units="km/s">5.2889148461786402</Y_DOT>
                        <Z_DOT units="km/s">5.46341708933193</Z_DOT>
                    </stateVector>
                    <stateVector>
                        <EPOCH>2021-228T02:08:19.983Z</EPOCH>
                        <X units="km">5125.7329461828003</X>
                        <Y units="km">4384.02897685464</Y>
                        <Z units="km">-855.726168651134</Z>
                        <X_DOT units="km/s">-2.5387992278724698</X_DOT>
                        <Y_DOT units="km/s">4.1192609203435504</Y_DOT>
                        <Z_DOT units="km/s">5.9379387969169599</Z_DOT>
                    </stateVector>
                    
                </data>
            </segment>
        </body>
    </oem>
</ndm>
